SHIYAN-1 (SY-1)         
1 28220U 04012A   26068.73650539  .00016393  00000+0  54854-3 0  9991
2 28220  97.8764 140.5238 0005873  23.6952 336.4557 15.31043463195862
STARLINK-36500          
1 67320U 26002R   26068.42424362  .00024944  00000+0  91420-3 0  9998
2 67320  42.9968 327.1737 0000643 351.1054   8.9786 15.27533622 11095
